NORAD_CAT_ID,OBJECT_NAME,OBJECT_TYPE,EPOCH,MEAN_MOTION,ECCENTRICITY,INCLINATION,RA_OF_ASC_NODE,ARG_OF_PERICENTER,MEAN_ANOMALY,BSTAR,MEAN_MOTION_DOT,MEAN_MOTION_DDOT,TLE_LINE0,TLE_LINE1,TLE_LINE2,SEMIMAJOR_AXIS,PERIOD,APOGEE,PERIGEE,DECAYED
55415.0,STARLINK-5618,PAYLOAD,2023-02-17 10:33:09,15.69920834,0.000331,69.9989,42.6022,276.0481,84.0337,0.000502,0.00060577,0.0,0 STARLINK-5618,1 55415U 23014AA  23048.43968944  .00060577  00000-0  50200-3 0  9999,2 55415  69.9989  42.6022 0003310 276.0481  84.0337 15.69920834  2838,6737.26,91.724,361.356,356.895,0.0
55415.0,STARLINK-5618,PAYLOAD,2023-02-17 13:36:39,15.69919845,0.0003461,69.9986,42.2432,278.1363,81.9439,0.00053395,0.00064475,0.0,0 STARLINK-5618,1 55415U 23014AA  23048.56712337  .00064475  00000-0  53395-3 0  9995,2 55415  69.9986  42.2432 0003461 278.1363  81.9439 15.69919845  3790,6737.263,91.724,361.46,356.797,0.0
55415.0,STARLINK-5618,PAYLOAD,2023-02-17 18:11:54,15.69936713,0.0003448,69.9985,41.7058,279.6023,80.4783,0.00064384,0.00077968,0.0,0 STARLINK-5618,1 55415U 23014AA  23048.75827317  .00077968  00000-0  64384-3 0  9992,2 55415  69.9985  41.7058 0003448 279.6023  80.4783 15.69936713  2889,6737.215,91.723,361.403,356.757,0.0
55415.0,STARLINK-5618,PAYLOAD,2023-02-17 21:15:25,15.69926819,0.0003729,69.9985,41.3472,283.0282,77.0497,0.00054559,0.00065919,0.0,0 STARLINK-5618,1 55415U 23014AA  23048.88570929  .00065919  00000-0  54559-3 0  9996,2 55415  69.9985  41.3472 0003729 283.0282  77.0497 15.69926819  3840,6737.243,91.724,361.621,356.596,0.0
55415.0,STARLINK-5618,PAYLOAD,2023-02-18 01:50:40,15.69937928,0.0003419,69.9983,40.8101,276.0857,83.9949,0.00052299,0.00063184,0.0,0 STARLINK-5618,1 55415U 23014AA  23049.07685831  .00063184  00000-0  52299-3 0  9998,2 55415  69.9983  40.8101 0003419 276.0857  83.9949 15.69937928  2937,6737.212,91.723,361.38,356.773,0.0
55415.0,STARLINK-5618,PAYLOAD,2023-02-18 11:01:11,15.69946022,0.000333,69.9984,39.7347,269.8057,90.2758,0.00040614,0.00048952,0.0,0 STARLINK-5618,1 55415U 23014AA  23049.45915614  .00048952  00000-0  40614-3 0  9999,2 55415  69.9984  39.7347 0003330 269.8057  90.2758 15.69946022  2991,6737.188,91.723,361.297,356.81,0.0
55415.0,STARLINK-5618,PAYLOAD,2023-02-18 14:04:41,15.69943502,0.0003266,69.9985,39.3762,272.8963,87.1859,0.00048311,0.00058328,0.0,0 STARLINK-5618,1 55415U 23014AA  23049.58658921  .00058328  00000-0  48311-3 0  9998,2 55415  69.9985  39.3762 0003266 272.8963  87.1859 15.69943502  3951,6737.196,91.723,361.261,356.86,0.0
55415.0,STARLINK-5618,PAYLOAD,2023-02-18 18:39:56,15.69953794,0.0003361,69.9984,38.8387,267.9002,92.1809,0.00055532,0.00067179,0.0,0 STARLINK-5618,1 55415U 23014AA  23049.77773579  .00067179  00000-0  55532-3 0  9993,2 55415  69.9984  38.8387 0003361 267.9002  92.1809 15.69953794  3047,6737.166,91.722,361.296,356.767,0.0
55415.0,STARLINK-5618,PAYLOAD,2023-02-19 00:46:59,15.70229224,0.0003975,69.9989,38.1226,248.3327,111.7446,-0.0020093,-0.00238138,0.0,0 STARLINK-5618,1 55415U 23014AA  23050.03263741 -.00238138  00000-0 -20093-2 0  9999,2 55415  69.9989  38.1226 0003975 248.3327 111.7446 15.70229224  3086,6736.378,91.706,360.921,355.566,0.0
55415.0,STARLINK-5618,PAYLOAD,2023-02-19 13:00:58,15.69918003,0.0003292,69.999,36.6891,266.2744,93.8075,0.00034803,0.00041833,0.0,0 STARLINK-5618,1 55415U 23014AA  23050.54233870  .00041833  00000-0  34803-3 0  9992,2 55415  69.9990  36.6891 0003292 266.2744  93.8075 15.69918003  4103,6737.269,91.725,361.351,356.916,0.0
55415.0,STARLINK-5618,PAYLOAD,2023-02-19 19:07:57,15.69956173,0.0003843,69.9989,35.9728,264.1621,95.9137,-0.00035698,-0.0004298,0.0,0 STARLINK-5618,1 55415U 23014AA  23050.79719701 -.00042980  00000-0 -35698-3 0  9990,2 55415  69.9989  35.9728 0003843 264.1621  95.9137 15.69956173  3207,6737.159,91.722,361.613,356.435,0.0
55415.0,STARLINK-5618,PAYLOAD,2023-02-20 10:25:29,15.6992869,0.0003423,69.9989,34.1804,263.5888,96.4918,0.00034074,0.00040967,0.0,0 STARLINK-5618,1 55415U 23014AA  23051.43437313  .00040967  00000-0  34074-3 0  9996,2 55415  69.9989  34.1804 0003423 263.5888  96.4918 15.69928690  3302,6737.238,91.724,361.409,356.797,0.0
55415.0,STARLINK-5618,PAYLOAD,2023-02-20 13:29:00,15.6993524,0.0003428,69.9988,33.8217,266.236,93.8443,0.00054919,0.00066378,0.0,0 STARLINK-5618,1 55415U 23014AA  23051.56180641  .00066378  00000-0  54919-3 0  9993,2 55415  69.9988  33.8217 0003428 266.2360  93.8443 15.69935240  4264,6737.219,91.724,361.394,356.775,0.0
55415.0,STARLINK-5618,PAYLOAD,2023-02-20 18:04:15,15.69931069,0.0003446,69.9988,33.2839,267.3693,92.7108,0.00041729,0.00050279,0.0,0 STARLINK-5618,1 55415U 23014AA  23051.75295599  .00050279  00000-0  41729-3 0  9991,2 55415  69.9988  33.2839 0003446 267.3693  92.7108 15.69931069  3359,6737.231,91.724,361.418,356.775,0.0
55415.0,STARLINK-5618,PAYLOAD,2023-02-21 04:46:31,15.70113143,0.0003762,69.9988,32.0295,274.6776,85.399,-0.00098871,-0.00118373,0.0,0 STARLINK-5618,1 55415U 23014AA  23052.19897260 -.00118373  00000-0 -98871-3 0  9995,2 55415  69.9988  32.0295 0003762 274.6776  85.3990 15.70113143  4362,6736.71,91.713,361.11,356.041,0.0
55415.0,STARLINK-5618,PAYLOAD,2023-02-21 07:50:19,15.69919697,0.0003408,69.9995,31.6739,263.1733,96.9075,0.00020382,0.00024362,0.0,0 STARLINK-5618,1 55415U 23014AA  23052.32661314  .00024362  00000-0  20382-3 0  9993,2 55415  69.9995  31.6739 0003408 263.1733  96.9075 15.69919697  3447,6737.264,91.724,361.425,356.833,0.0
55415.0,STARLINK-5618,PAYLOAD,2023-02-21 21:36:05,15.69933774,0.0003342,69.9996,30.0612,264.8175,95.2639,0.00017467,0.0002085,0.0,0 STARLINK-5618,1 55415U 23014AA  23052.90006573  .00020850  00000-0  17467-3 0  9995,2 55415  69.9996  30.0612 0003342 264.8175  95.2639 15.69933774  4470,6737.223,91.724,361.34,356.837,0.0
55415.0,STARLINK-5618,PAYLOAD,2023-02-22 02:11:20,15.69948062,0.0003347,69.9999,29.5241,265.2938,94.7876,0.00025399,0.00030469,0.0,0 STARLINK-5618,1 55415U 23014AA  23053.09121314  .00030469  00000-0  25399-3 0  9997,2 55415  69.9999  29.5241 0003347 265.2938  94.7876 15.69948062  3563,6737.183,91.723,361.303,356.793,0.0
55415.0,STARLINK-5618,PAYLOAD,2023-02-22 09:50:07,15.69910737,0.0003163,69.9993,28.628,279.2442,80.8396,-3.1146e-05,-3.954e-05,0.0,0 STARLINK-5618,1 55415U 23014AA  23053.40980587 -.00003954  00000-0 -31146-4 0  9996,2 55415  69.9993  28.6280 0003163 279.2442  80.8396 15.69910737  3618,6737.289,91.725,361.285,357.023,0.0
55415.0,STARLINK-5618,PAYLOAD,2023-02-22 15:57:07,15.69921069,0.0004438,69.9993,27.9091,264.2433,95.8257,0.00013185,0.00015672,0.0,0 STARLINK-5618,1 55415U 23014AA  23053.66466692  .00015672  00000-0  13185-3 0  9990,2 55415  69.9993  27.9091 0004438 264.2433  95.8257 15.69921069  3656,6737.26,91.724,362.115,356.135,0.0
55415.0,STARLINK-5618,PAYLOAD,2023-02-22 22:04:07,15.69974059,0.0003359,69.9999,27.1946,275.2788,84.8024,0.00045574,0.0005506,0.0,0 STARLINK-5618,1 55415U 23014AA  23053.91953003  .00055060  00000-0  45574-3 0  9997,2 55415  69.9999  27.1946 0003359 275.2788  84.8024 15.69974059  4635,6737.108,91.721,361.236,356.71,0.0
55415.0,STARLINK-5618,PAYLOAD,2023-02-23 04:11:06,15.70049176,0.0003667,70.0,26.4788,277.9481,82.1299,0.00091547,0.00111928,0.0,0 STARLINK-5618,1 55415U 23014AA  23054.17438162  .00111928  00000-0  91547-3 0  9997,2 55415  70.0000  26.4788 0003667 277.9481  82.1299 15.70049176  3738,6736.893,91.717,361.229,356.288,0.0
55415.0,STARLINK-5618,PAYLOAD,2023-02-23 07:14:37,15.69995528,0.0002869,69.9998,26.1192,275.5181,84.5688,0.0007804,0.00094966,0.0,0 STARLINK-5618,1 55415U 23014AA  23054.30182017  .00094966  00000-0  78040-3 0  9992,2 55415  69.9998  26.1192 0002869 275.5181  84.5688 15.69995528  3750,6737.047,91.72,360.845,356.979,0.0
55415.0,STARLINK-5618,PAYLOAD,2023-02-23 21:00:24,15.69924961,0.0002798,70.0012,24.5081,263.6076,96.4801,0.00048128,0.00058056,0.0,0 STARLINK-5618,1 55415U 23014AA  23054.87527842  .00058056  00000-0  48128-3 0  9997,2 55415  70.0012  24.5081 0002798 263.6076  96.4801 15.69924961  3843,6737.249,91.724,360.999,357.229,0.0
55415.0,STARLINK-5618,PAYLOAD,2023-02-24 00:03:54,15.69878472,0.0003744,70.0007,24.1493,274.0217,86.055,0.00037147,0.0004461,0.0,0 STARLINK-5618,1 55415U 23014AA  23055.00271600  .00044610  00000-0  37147-3 0  9991,2 55415  70.0007  24.1493 0003744 274.0217  86.0550 15.69878472  3868,6737.382,91.727,361.769,356.724,0.0
55415.0,STARLINK-5618,PAYLOAD,2023-02-24 07:42:40,15.69906269,0.0003437,70.0011,23.2536,271.9391,88.1411,0.00016845,0.00020076,0.0,0 STARLINK-5618,1 55415U 23014AA  23055.32130450  .00020076  00000-0  16845-3 0  9995,2 55415  70.0011  23.2536 0003437 271.9391  88.1411 15.69906269  4854,6737.302,91.725,361.483,356.852,0.0
55415.0,STARLINK-5618,PAYLOAD,2023-02-24 21:28:27,15.69919402,0.0003326,70.0006,21.6411,270.0971,89.9844,0.00013511,0.00016061,0.0,0 STARLINK-5618,1 55415U 23014AA  23055.89475994  .00016061  00000-0  13511-3 0  9998,2 55415  70.0006  21.6411 0003326 270.0971  89.9844 15.69919402  4945,6737.265,91.724,361.37,356.889,0.0
55415.0,STARLINK-5618,PAYLOAD,2023-02-25 00:31:57,15.69912878,0.0003467,70.0,21.2831,270.8713,89.2086,8.0107e-05,9.426e-05,0.0,0 STARLINK-5618,1 55415U 23014AA  23056.02219472  .00009426  00000-0  80107-4 0  9994,2 55415  70.0000  21.2831 0003467 270.8713  89.2086 15.69912878  4029,6737.283,91.725,361.484,356.812,0.0
55415.0,STARLINK-5618,PAYLOAD,2023-02-25 05:07:12,15.6991976,0.0003624,69.9991,20.7445,265.8555,94.2227,8.7416e-05,0.0001031,0.0,0 STARLINK-5618,1 55415U 23014AA  23056.21334419  .00010310  00000-0  87416-4 0  9998,2 55415  69.9991  20.7445 0003624 265.8555  94.2227 15.69919760  4999,6737.264,91.724,361.57,356.687,0.0
55415.0,STARLINK-5618,PAYLOAD,2023-02-26 04:03:27,15.70002631,0.0002751,70.0005,18.0584,254.765,105.3241,0.00034911,0.00042109,0.0,0 STARLINK-5618,1 55415U 23014AA  23057.16907388  .00042109  00000-0  34911-3 0  9996,2 55415  70.0005  18.0584 0002751 254.7650 105.3241 15.70002631  4201,6737.026,91.72,360.745,357.038,0.0
